{
  "type": "FeatureCollection",
  "features": [
    {
      "type": "Feature",
      "properties": {
        "norad_id": 34765,
        "name": "IRIDIUM 33 DEB",
        "group": "iridium-33-debris",
        "lat": 54.25637651760257,
        "lon": -152.09242386973665,
        "alt_km": 751.535923299989,
        "timestamp": "2025-12-12T03:50:52.803320+00:00",
        "meta_object_name": "IRIDIUM 33 DEB",
        "meta_object_id": "1997-051LJ",
        "meta_epoch": "2025-12-11T14:38:05.129376",
        "meta_mean_motion": 14.40460694,
        "meta_eccentricity": 0.00153204,
        "meta_inclination": 86.3396,
        "meta_ra_of_asc_node": 33.2465,
        "meta_arg_of_pericenter": 215.3687,
        "meta_mean_anomaly": 297.1612,
        "meta_ephemeris_type": 0,
        "meta_classification_type": "U",
        "meta_norad_cat_id": 34765,
        "meta_element_set_no": 999,
        "meta_rev_at_epoch": 87597,
        "meta_bstar": 0.00062745119,
        "meta_mean_motion_dot": 2.016e-05,
        "meta_mean_motion_ddot": 0,
        "tle_line1": "1 34765U 97051LJ  25345.60978159  .00002016  00000+0  62745-3 0  9996",
        "tle_line2": "2 34765  86.3396  33.2465 0015320 215.3687 297.1612 14.40460694875970"
      },
      "geometry": {
        "type": "Point",
        "coordinates": [
          -152.09242386973665,
          54.25637651760257
        ]
      }
    },
    {
      "type": "Feature",
      "properties": {
        "norad_id": 34833,
        "name": "IRIDIUM 33 DEB",
        "group": "iridium-33-debris",
        "lat": -26.683656040287644,
        "lon": -126.93969064588627,
        "alt_km": 728.1178291218066,
        "timestamp": "2025-12-12T03:50:52.803331+00:00",
        "meta_object_name": "IRIDIUM 33 DEB",
        "meta_object_id": "1997-051MH",
        "meta_epoch": "2025-12-10T23:03:13.627296",
        "meta_mean_motion": 14.52360033,
        "meta_eccentricity": 0.00218068,
        "meta_inclination": 86.3925,
        "meta_ra_of_asc_node": 51.7603,
        "meta_arg_of_pericenter": 104.0479,
        "meta_mean_anomaly": 313.4117,
        "meta_ephemeris_type": 0,
        "meta_classification_type": "U",
        "meta_norad_cat_id": 34833,
        "meta_element_set_no": 999,
        "meta_rev_at_epoch": 87689,
        "meta_bstar": 0.0011952605,
        "meta_mean_motion_dot": 4.899e-05,
        "meta_mean_motion_ddot": 0,
        "tle_line1": "1 34833U 97051MH  25344.96057439  .00004899  00000+0  11953-2 0  9994",
        "tle_line2": "2 34833  86.3925  51.7603 0021806 104.0479 313.4117 14.52360033876895"
      },
      "geometry": {
        "type": "Point",
        "coordinates": [
          -126.93969064588627,
          -26.683656040287644
        ]
      }
    },
    {
      "type": "Feature",
      "properties": {
        "norad_id": 34870,
        "name": "IRIDIUM 33 DEB",
        "group": "iridium-33-debris",
        "lat": 51.59517552334081,
        "lon": 129.68086259717768,
        "alt_km": 629.8756560139936,
        "timestamp": "2025-12-12T03:50:52.803341+00:00",
        "meta_object_name": "IRIDIUM 33 DEB",
        "meta_object_id": "1997-051MQ",
        "meta_epoch": "2025-12-10T16:16:47.325792",
        "meta_mean_motion": 14.76360658,
        "meta_eccentricity": 0.00158788,
        "meta_inclination": 86.3108,
        "meta_ra_of_asc_node": 315.0279,
        "meta_arg_of_pericenter": 190.0668,
        "meta_mean_anomaly": 346.5866,
        "meta_ephemeris_type": 0,
        "meta_classification_type": "U",
        "meta_norad_cat_id": 34870,
        "meta_element_set_no": 999,
        "meta_rev_at_epoch": 88880,
        "meta_bstar": 0.0023954817,
        "meta_mean_motion_dot": 0.00016709,
        "meta_mean_motion_ddot": 0,
        "tle_line1": "1 34870U 97051MQ  25344.67832553  .00016709  00000+0  23955-2 0  9999",
        "tle_line2": "2 34870  86.3108 315.0279 0015878 190.0668 346.5866 14.76360658888802"
      },
      "geometry": {
        "type": "Point",
        "coordinates": [
          129.68086259717768,
          51.59517552334081
        ]
      }
    },
    {
      "type": "Feature",
      "properties": {
        "norad_id": 34896,
        "name": "IRIDIUM 33 DEB",
        "group": "iridium-33-debris",
        "lat": -9.272831761484,
        "lon": -33.65505456128397,
        "alt_km": 689.0071547785838,
        "timestamp": "2025-12-12T03:50:52.803351+00:00",
        "meta_object_name": "IRIDIUM 33 DEB",
        "meta_object_id": "1997-051MY",
        "meta_epoch": "2025-12-11T06:54:08.257248",
        "meta_mean_motion": 14.66256347,
        "meta_eccentricity": 0.00241983,
        "meta_inclination": 86.3294,
        "meta_ra_of_asc_node": 327.3367,
        "meta_arg_of_pericenter": 219.9786,
        "meta_mean_anomaly": 206.8534,
        "meta_ephemeris_type": 0,
        "meta_classification_type": "U",
        "meta_norad_cat_id": 34896,
        "meta_element_set_no": 999,
        "meta_rev_at_epoch": 87598,
        "meta_bstar": 0.0017967326,
        "meta_mean_motion_dot": 9.969e-05,
        "meta_mean_motion_ddot": 0,
        "tle_line1": "1 34896U 97051MY  25345.28759557  .00009969  00000+0  17967-2 0  9993",
        "tle_line2": "2 34896  86.3294 327.3367 0024198 219.9786 206.8534 14.66256347875980"
      },
      "geometry": {
        "type": "Point",
        "coordinates": [
          -33.65505456128397,
          -9.272831761484
        ]
      }
    },
    {
      "type": "Feature",
      "properties": {
        "norad_id": 34926,
        "name": "IRIDIUM 33 DEB",
        "group": "iridium-33-debris",
        "lat": 77.31880635681586,
        "lon": 171.04376670481153,
        "alt_km": 756.5454077074737,
        "timestamp": "2025-12-12T03:50:52.803363+00:00",
        "meta_object_name": "IRIDIUM 33 DEB",
        "meta_object_id": "1997-051NF",
        "meta_epoch": "2025-12-11T01:05:29.819328",
        "meta_mean_motion": 14.54283993,
        "meta_eccentricity": 0.00757067,
        "meta_inclination": 86.1321,
        "meta_ra_of_asc_node": 9.0582,
        "meta_arg_of_pericenter": 298.5987,
        "meta_mean_anomaly": 90.146,
        "meta_ephemeris_type": 0,
        "meta_classification_type": "U",
        "meta_norad_cat_id": 34926,
        "meta_element_set_no": 999,
        "meta_rev_at_epoch": 86432,
        "meta_bstar": 0.0083538341,
        "meta_mean_motion_dot": 0.00036974,
        "meta_mean_motion_ddot": 0,
        "tle_line1": "1 34926U 97051NF  25345.04548402  .00036974  00000+0  83538-2 0  9999",
        "tle_line2": "2 34926  86.1321   9.0582 0075706 298.5987  90.1460 14.54283993864325"
      },
      "geometry": {
        "type": "Point",
        "coordinates": [
          171.04376670481153,
          77.31880635681586
        ]
      }
    },
    {
      "type": "Feature",
      "properties": {
        "norad_id": 34985,
        "name": "IRIDIUM 33 DEB",
        "group": "iridium-33-debris",
        "lat": -72.52275331913592,
        "lon": -111.24068046905623,
        "alt_km": 746.6675903163004,
        "timestamp": "2025-12-12T03:50:52.803373+00:00",
        "meta_object_name": "IRIDIUM 33 DEB",
        "meta_object_id": "1997-051NR",
        "meta_epoch": "2025-12-11T11:45:25.383168",
        "meta_mean_motion": 14.42002723,
        "meta_eccentricity": 0.00206039,
        "meta_inclination": 86.3696,
        "meta_ra_of_asc_node": 57.4124,
        "meta_arg_of_pericenter": 224.0438,
        "meta_mean_anomaly": 150.4182,
        "meta_ephemeris_type": 0,
        "meta_classification_type": "U",
        "meta_norad_cat_id": 34985,
        "meta_element_set_no": 999,
        "meta_rev_at_epoch": 87157,
        "meta_bstar": 0.0012198986,
        "meta_mean_motion_dot": 4.029e-05,
        "meta_mean_motion_ddot": 0,
        "tle_line1": "1 34985U 97051NR  25345.48987712  .00004029  00000+0  12199-2 0  9994",
        "tle_line2": "2 34985  86.3696  57.4124 0020603 224.0438 150.4182 14.42002723871570"
      },
      "geometry": {
        "type": "Point",
        "coordinates": [
          -111.24068046905623,
          -72.52275331913592
        ]
      }
    },
    {
      "type": "Feature",
      "properties": {
        "norad_id": 35051,
        "name": "IRIDIUM 33 DEB",
        "group": "iridium-33-debris",
        "lat": 5.912689975063315,
        "lon": -171.26694363488213,
        "alt_km": 734.6788166741735,
        "timestamp": "2025-12-12T03:50:52.803383+00:00",
        "meta_object_name": "IRIDIUM 33 DEB",
        "meta_object_id": "1997-051NX",
        "meta_epoch": "2025-12-11T08:47:57.045408",
        "meta_mean_motion": 14.47588957,
        "meta_eccentricity": 0.00106566,
        "meta_inclination": 86.3243,
        "meta_ra_of_asc_node": 9.4603,
        "meta_arg_of_pericenter": 94.8899,
        "meta_mean_anomaly": 265.3522,
        "meta_ephemeris_type": 0,
        "meta_classification_type": "U",
        "meta_norad_cat_id": 35051,
        "meta_element_set_no": 999,
        "meta_rev_at_epoch": 86976,
        "meta_bstar": 0.001042299,
        "meta_mean_motion_dot": 3.858e-05,
        "meta_mean_motion_ddot": 0,
        "tle_line1": "1 35051U 97051NX  25345.36663247  .00003858  00000+0  10423-2 0  9997",
        "tle_line2": "2 35051  86.3243   9.4603 0010656  94.8899 265.3522 14.47588957869768"
      },
      "geometry": {
        "type": "Point",
        "coordinates": [
          -171.26694363488213,
          5.912689975063315
        ]
      }
    }
  ]
}